{
  "type": "FeatureCollection",
  "features": [
    {
      "type": "Feature",
      "properties": {
        "norad_id": 30004,
        "name": "FENGYUN 1C DEB",
        "group": "fengyun-1c-debris",
        "lat": 58.311089904843676,
        "lon": 148.52815870224828,
        "alt_km": 818.0879109598545,
        "timestamp": "2025-12-08T19:31:49.082805+00:00",
        "meta_object_name": "FENGYUN 1C DEB",
        "meta_object_id": "1999-025MD",
        "meta_epoch": "2025-12-08T06:32:47.452416",
        "meta_mean_motion": 14.17041208,
        "meta_eccentricity": 0.00386901,
        "meta_inclination": 99.2233,
        "meta_ra_of_asc_node": 163.2274,
        "meta_arg_of_pericenter": 355.4856,
        "meta_mean_anomaly": 185.4556,
        "meta_ephemeris_type": 0,
        "meta_classification_type": "U",
        "meta_norad_cat_id": 30004,
        "meta_element_set_no": 999,
        "meta_rev_at_epoch": 97243,
        "meta_bstar": 0.00115555,
        "meta_mean_motion_dot": 2.294e-05,
        "meta_mean_motion_ddot": 0,
        "tle_line1": "1 30004U 99025MD  25342.27277144  .00002294  00000+0  11555-2 0  9997",
        "tle_line2": "2 30004  99.2233 163.2274 0038690 355.4856 185.4556 14.17041208972431"
      },
      "geometry": {
        "type": "Point",
        "coordinates": [
          148.52815870224828,
          58.311089904843676
        ]
      }
    },
    {
      "type": "Feature",
      "properties": {
        "norad_id": 30005,
        "name": "FENGYUN 1C DEB",
        "group": "fengyun-1c-debris",
        "lat": 79.8210701784923,
        "lon": -120.8861375795176,
        "alt_km": 809.7896904814061,
        "timestamp": "2025-12-08T19:31:49.082814+00:00",
        "meta_object_name": "FENGYUN 1C DEB",
        "meta_object_id": "1999-025ME",
        "meta_epoch": "2025-12-08T03:08:18.165984",
        "meta_mean_motion": 13.52201339,
        "meta_eccentricity": 0.03466196,
        "meta_inclination": 99.3017,
        "meta_ra_of_asc_node": 304.3617,
        "meta_arg_of_pericenter": 105.0208,
        "meta_mean_anomaly": 258.956,
        "meta_ephemeris_type": 0,
        "meta_classification_type": "U",
        "meta_norad_cat_id": 30005,
        "meta_element_set_no": 999,
        "meta_rev_at_epoch": 92884,
        "meta_bstar": 0.0015250757,
        "meta_mean_motion_dot": 1.428e-05,
        "meta_mean_motion_ddot": 0,
        "tle_line1": "1 30005U 99025ME  25342.13076581  .00001428  00000+0  15251-2 0  9990",
        "tle_line2": "2 30005  99.3017 304.3617 0346619 105.0208 258.9560 13.52201339928843"
      },
      "geometry": {
        "type": "Point",
        "coordinates": [
          -120.8861375795176,
          79.8210701784923
        ]
      }
    },
    {
      "type": "Feature",
      "properties": {
        "norad_id": 30007,
        "name": "FENGYUN 1C DEB",
        "group": "fengyun-1c-debris",
        "lat": -2.0444542061596733,
        "lon": -115.68936394264676,
        "alt_km": 768.5525168900158,
        "timestamp": "2025-12-08T19:31:49.082827+00:00",
        "meta_object_name": "FENGYUN 1C DEB",
        "meta_object_id": "1999-025MG",
        "meta_epoch": "2025-12-08T06:35:46.116384",
        "meta_mean_motion": 14.25357479,
        "meta_eccentricity": 0.00656963,
        "meta_inclination": 99.1778,
        "meta_ra_of_asc_node": 243.4164,
        "meta_arg_of_pericenter": 27.244,
        "meta_mean_anomaly": 87.3195,
        "meta_ephemeris_type": 0,
        "meta_classification_type": "U",
        "meta_norad_cat_id": 30007,
        "meta_element_set_no": 999,
        "meta_rev_at_epoch": 97292,
        "meta_bstar": 0.0024903372,
        "meta_mean_motion_dot": 5.96e-05,
        "meta_mean_motion_ddot": 0,
        "tle_line1": "1 30007U 99025MG  25342.27483931  .00005960  00000+0  24903-2 0  9997",
        "tle_line2": "2 30007  99.1778 243.4164 0065696  27.2440  87.3195 14.25357479972927"
      },
      "geometry": {
        "type": "Point",
        "coordinates": [
          -115.68936394264676,
          -2.0444542061596733
        ]
      }
    },
    {
      "type": "Feature",
      "properties": {
        "norad_id": 30008,
        "name": "FENGYUN 1C DEB",
        "group": "fengyun-1c-debris",
        "lat": 37.28515962660471,
        "lon": -68.58355044807641,
        "alt_km": 697.1182287014699,
        "timestamp": "2025-12-08T19:31:49.082836+00:00",
        "meta_object_name": "FENGYUN 1C DEB",
        "meta_object_id": "1999-025MH",
        "meta_epoch": "2025-12-07T20:42:55.855008",
        "meta_mean_motion": 14.66132043,
        "meta_eccentricity": 0.0038642,
        "meta_inclination": 99.369,
        "meta_ra_of_asc_node": 297.5545,
        "meta_arg_of_pericenter": 207.5738,
        "meta_mean_anomaly": 215.9006,
        "meta_ephemeris_type": 0,
        "meta_classification_type": "U",
        "meta_norad_cat_id": 30008,
        "meta_element_set_no": 999,
        "meta_rev_at_epoch": 98988,
        "meta_bstar": 0.0034247831,
        "meta_mean_motion_dot": 0.00019019,
        "meta_mean_motion_ddot": 0,
        "tle_line1": "1 30008U 99025MH  25341.86314647  .00019019  00000+0  34248-2 0  9992",
        "tle_line2": "2 30008  99.3690 297.5545 0038642 207.5738 215.9006 14.66132043989886"
      },
      "geometry": {
        "type": "Point",
        "coordinates": [
          -68.58355044807641,
          37.28515962660471
        ]
      }
    },
    {
      "type": "Feature",
      "properties": {
        "norad_id": 30009,
        "name": "FENGYUN 1C DEB",
        "group": "fengyun-1c-debris",
        "lat": -62.34176967219129,
        "lon": -159.8702373342507,
        "alt_km": 894.3918275279393,
        "timestamp": "2025-12-08T19:31:49.082846+00:00",
        "meta_object_name": "FENGYUN 1C DEB",
        "meta_object_id": "1999-025MJ",
        "meta_epoch": "2025-12-08T02:59:09.088800",
        "meta_mean_motion": 14.04839952,
        "meta_eccentricity": 0.00637936,
        "meta_inclination": 99.015,
        "meta_ra_of_asc_node": 37.0779,
        "meta_arg_of_pericenter": 348.6658,
        "meta_mean_anomaly": 11.3068,
        "meta_ephemeris_type": 0,
        "meta_classification_type": "U",
        "meta_norad_cat_id": 30009,
        "meta_element_set_no": 999,
        "meta_rev_at_epoch": 96418,
        "meta_bstar": 0.00093509619,
        "meta_mean_motion_dot": 1.484e-05,
        "meta_mean_motion_ddot": 0,
        "tle_line1": "1 30009U 99025MJ  25342.12441075  .00001484  00000+0  93510-3 0  9994",
        "tle_line2": "2 30009  99.0150  37.0779 0063793 348.6658  11.3068 14.04839952964181"
      },
      "geometry": {
        "type": "Point",
        "coordinates": [
          -159.8702373342507,
          -62.34176967219129
        ]
      }
    },
    {
      "type": "Feature",
      "properties": {
        "norad_id": 30010,
        "name": "FENGYUN 1C DEB",
        "group": "fengyun-1c-debris",
        "lat": 28.7397453521132,
        "lon": -0.13503084725414183,
        "alt_km": 788.9958406709684,
        "timestamp": "2025-12-08T19:31:49.082855+00:00",
        "meta_object_name": "FENGYUN 1C DEB",
        "meta_object_id": "1999-025MK",
        "meta_epoch": "2025-12-08T02:31:46.145280",
        "meta_mean_motion": 14.2498229,
        "meta_eccentricity": 0.00725172,
        "meta_inclination": 99.07,
        "meta_ra_of_asc_node": 174.1078,
        "meta_arg_of_pericenter": 222.7992,
        "meta_mean_anomaly": 256.8983,
        "meta_ephemeris_type": 0,
        "meta_classification_type": "U",
        "meta_norad_cat_id": 30010,
        "meta_element_set_no": 999,
        "meta_rev_at_epoch": 98194,
        "meta_bstar": 0.00021893543,
        "meta_mean_motion_dot": 4.79e-06,
        "meta_mean_motion_ddot": 0,
        "tle_line1": "1 30010U 99025MK  25342.10539520  .00000479  00000+0  21894-3 0  9996",
        "tle_line2": "2 30010  99.0700 174.1078 0072517 222.7992 256.8983 14.24982290981947"
      },
      "geometry": {
        "type": "Point",
        "coordinates": [
          -0.13503084725414183,
          28.7397453521132
        ]
      }
    },
    {
      "type": "Feature",
      "properties": {
        "norad_id": 30012,
        "name": "FENGYUN 1C DEB",
        "group": "fengyun-1c-debris",
        "lat": -59.59989673243694,
        "lon": 52.525005963574685,
        "alt_km": 1030.1995878729049,
        "timestamp": "2025-12-08T19:31:49.082864+00:00",
        "meta_object_name": "FENGYUN 1C DEB",
        "meta_object_id": "1999-025MM",
        "meta_epoch": "2025-12-08T02:35:41.358048",
        "meta_mean_motion": 13.85760251,
        "meta_eccentricity": 0.01369687,
        "meta_inclination": 99.4648,
        "meta_ra_of_asc_node": 35.2938,
        "meta_arg_of_pericenter": 157.9494,
        "meta_mean_anomaly": 221.7795,
        "meta_ephemeris_type": 0,
        "meta_classification_type": "U",
        "meta_norad_cat_id": 30012,
        "meta_element_set_no": 999,
        "meta_rev_at_epoch": 95484,
        "meta_bstar": 0.00044584143,
        "meta_mean_motion_dot": 5.05e-06,
        "meta_mean_motion_ddot": 0,
        "tle_line1": "1 30012U 99025MM  25342.10811757  .00000505  00000+0  44584-3 0  9994",
        "tle_line2": "2 30012  99.4648  35.2938 0136968 157.9494 221.7795 13.85760251954841"
      },
      "geometry": {
        "type": "Point",
        "coordinates": [
          52.525005963574685,
          -59.59989673243694
        ]
      }
    }
  ]
}